ORBCOMM FM115           
1 41186U 15081H   25086.95410543  .00002767  00000+0  57724-3 0  9996
2 41186  46.9974  65.8483 0001003 333.9739  26.1097 14.62278537495880
ORBCOMM FM108           
1 41187U 15081J   25086.48991326  .00002341  00000+0  54112-3 0  9994
2 41187  47.0029 132.7401 0003814 286.6690  73.3776 14.57994779494873
ORBCOMM FM117           
1 41188U 15081K   25086.52471884  .00002321  00000+0  53681-3 0  9990
2 41188  46.9991 131.3656 0004165 293.9131  66.1318 14.57992193494924
ORBCOMM FM116           
1 41189U 15081L   25086.79013460  .00002852  00000+0  65189-3 0  9997
2 41189  47.0006 219.9795 0000925 352.5783   7.5088 14.57948023493774
