<?xml version="1.0" encoding="UTF-8"?>
<ndm xmlns:xsi="http://www.w3.org/2001/XMLSchema-instance" xsi:noNamespaceSchemaLocation="https://sanaregistry.org/r/ndmxml_unqualified/ndmxml-2.0.0-master-2.0.xsd">
<omm id="CCSDS_OMM_VERS" version="2.0">
<header><CREATION_DATE/><ORIGINATOR/></header><body><segment><metadata><OBJECT_NAME>ORBCOMM FM115</OBJECT_NAME><OBJECT_ID>2015-081H</OBJECT_ID><CENTER_NAME>EARTH</CENTER_NAME><REF_FRAME>TEME</REF_FRAME><TIME_SYSTEM>UTC</TIME_SYSTEM><MEAN_ELEMENT_THEORY>SGP4</MEAN_ELEMENT_THEORY></metadata><data><meanElements><EPOCH>2025-03-27T22:53:54.709152</EPOCH><MEAN_MOTION>14.62278537</MEAN_MOTION><ECCENTRICITY>.0001003</ECCENTRICITY><INCLINATION>46.9974</INCLINATION><RA_OF_ASC_NODE>65.8483</RA_OF_ASC_NODE><ARG_OF_PERICENTER>333.9739</ARG_OF_PERICENTER><MEAN_ANOMALY>26.1097</MEAN_ANOMALY></meanElements><tleParameters><EPHEMERIS_TYPE>0</EPHEMERIS_TYPE><CLASSIFICATION_TYPE>U</CLASSIFICATION_TYPE><NORAD_CAT_ID>41186</NORAD_CAT_ID><ELEMENT_SET_NO>999</ELEMENT_SET_NO><REV_AT_EPOCH>49588</REV_AT_EPOCH><BSTAR>.57724E-3</BSTAR><MEAN_MOTION_DOT>.2767E-4</MEAN_MOTION_DOT><MEAN_MOTION_DDOT>0</MEAN_MOTION_DDOT></tleParameters></data></segment></body></omm>
<omm id="CCSDS_OMM_VERS" version="2.0">
<header><CREATION_DATE/><ORIGINATOR/></header><body><segment><metadata><OBJECT_NAME>ORBCOMM FM108</OBJECT_NAME><OBJECT_ID>2015-081J</OBJECT_ID><CENTER_NAME>EARTH</CENTER_NAME><REF_FRAME>TEME</REF_FRAME><TIME_SYSTEM>UTC</TIME_SYSTEM><MEAN_ELEMENT_THEORY>SGP4</MEAN_ELEMENT_THEORY></metadata><data><meanElements><EPOCH>2025-03-27T11:45:28.505664</EPOCH><MEAN_MOTION>14.57994779</MEAN_MOTION><ECCENTRICITY>.0003814</ECCENTRICITY><INCLINATION>47.0029</INCLINATION><RA_OF_ASC_NODE>132.7401</RA_OF_ASC_NODE><ARG_OF_PERICENTER>286.6690</ARG_OF_PERICENTER><MEAN_ANOMALY>73.3776</MEAN_ANOMALY></meanElements><tleParameters><EPHEMERIS_TYPE>0</EPHEMERIS_TYPE><CLASSIFICATION_TYPE>U</CLASSIFICATION_TYPE><NORAD_CAT_ID>41187</NORAD_CAT_ID><ELEMENT_SET_NO>999</ELEMENT_SET_NO><REV_AT_EPOCH>49487</REV_AT_EPOCH><BSTAR>.54112E-3</BSTAR><MEAN_MOTION_DOT>.2341E-4</MEAN_MOTION_DOT><MEAN_MOTION_DDOT>0</MEAN_MOTION_DDOT></tleParameters></data></segment></body></omm>
<omm id="CCSDS_OMM_VERS" version="2.0">
<header><CREATION_DATE/><ORIGINATOR/></header><body><segment><metadata><OBJECT_NAME>ORBCOMM FM117</OBJECT_NAME><OBJECT_ID>2015-081K</OBJECT_ID><CENTER_NAME>EARTH</CENTER_NAME><REF_FRAME>TEME</REF_FRAME><TIME_SYSTEM>UTC</TIME_SYSTEM><MEAN_ELEMENT_THEORY>SGP4</MEAN_ELEMENT_THEORY></metadata><data><meanElements><EPOCH>2025-03-27T12:35:35.707776</EPOCH><MEAN_MOTION>14.57992193</MEAN_MOTION><ECCENTRICITY>.0004165</ECCENTRICITY><INCLINATION>46.9991</INCLINATION><RA_OF_ASC_NODE>131.3656</RA_OF_ASC_NODE><ARG_OF_PERICENTER>293.9131</ARG_OF_PERICENTER><MEAN_ANOMALY>66.1318</MEAN_ANOMALY></meanElements><tleParameters><EPHEMERIS_TYPE>0</EPHEMERIS_TYPE><CLASSIFICATION_TYPE>U</CLASSIFICATION_TYPE><NORAD_CAT_ID>41188</NORAD_CAT_ID><ELEMENT_SET_NO>999</ELEMENT_SET_NO><REV_AT_EPOCH>49492</REV_AT_EPOCH><BSTAR>.53681E-3</BSTAR><MEAN_MOTION_DOT>.2321E-4</MEAN_MOTION_DOT><MEAN_MOTION_DDOT>0</MEAN_MOTION_DDOT></tleParameters></data></segment></body></omm>
<omm id="CCSDS_OMM_VERS" version="2.0">
<header><CREATION_DATE/><ORIGINATOR/></header><body><segment><metadata><OBJECT_NAME>ORBCOMM FM116</OBJECT_NAME><OBJECT_ID>2015-081L</OBJECT_ID><CENTER_NAME>EARTH</CENTER_NAME><REF_FRAME>TEME</REF_FRAME><TIME_SYSTEM>UTC</TIME_SYSTEM><MEAN_ELEMENT_THEORY>SGP4</MEAN_ELEMENT_THEORY></metadata><data><meanElements><EPOCH>2025-03-27T18:57:47.629440</EPOCH><MEAN_MOTION>14.57948023</MEAN_MOTION><ECCENTRICITY>.0000925</ECCENTRICITY><INCLINATION>47.0006</INCLINATION><RA_OF_ASC_NODE>219.9795</RA_OF_ASC_NODE><ARG_OF_PERICENTER>352.5783</ARG_OF_PERICENTER><MEAN_ANOMALY>7.5088</MEAN_ANOMALY></meanElements><tleParameters><EPHEMERIS_TYPE>0</EPHEMERIS_TYPE><CLASSIFICATION_TYPE>U</CLASSIFICATION_TYPE><NORAD_CAT_ID>41189</NORAD_CAT_ID><ELEMENT_SET_NO>999</ELEMENT_SET_NO><REV_AT_EPOCH>49377</REV_AT_EPOCH><BSTAR>.65189E-3</BSTAR><MEAN_MOTION_DOT>.2852E-4</MEAN_MOTION_DOT><MEAN_MOTION_DDOT>0</MEAN_MOTION_DDOT></tleParameters></data></segment></body></omm>
</ndm>
